[
    {
        "Altitude(m)": 706980.2427477246,
        "Argument of Periapsis(deg)": 0.011390121186627068,
        "Eccentricity": 0.0,
        "Inclination(deg)": 45.0,
        "Latitude(deg)": 43.70073648864461,
        "Longitude(deg)": 151.12496527395018,
        "Mean Anomaly(deg)": 76.98771664748082,
        "RAAN(deg)": 179.9892480585418,
        "Satellite Name": "Constellation 1 796",
        "Satellite Number": 796,
        "Semi-Major Axis(m)": 7083131.272910544,
        "Time(s)": 190
    },
    {
        "Altitude(m)": 706983.2377508333,
        "Argument of Periapsis(deg)": 0.011450069192872472,
        "Eccentricity": 0.0,
        "Inclination(deg)": 45.0,
        "Latitude(deg)": 43.71407367406773,
        "Longitude(deg)": 151.20261736622444,
        "Mean Anomaly(deg)": 77.0484177877307,
        "RAAN(deg)": 179.9891914693762,
        "Satellite Name": "Constellation 1 796",
        "Satellite Number": 796,
        "Semi-Major Axis(m)": 7083131.272910544,
        "Time(s)": 191
    },
    {
        "Altitude(m)": 706986.2200225388,
        "Argument of Periapsis(deg)": 0.01151001719911788,
        "Eccentricity": 0.0,
        "Inclination(deg)": 45.0,
        "Latitude(deg)": 43.72735234288688,
        "Longitude(deg)": 151.2803056264369,
        "Mean Anomaly(deg)": 77.10911892798063,
        "RAAN(deg)": 179.98913488021066,
        "Satellite Name": "Constellation 1 796",
        "Satellite Number": 796,
        "Semi-Major Axis(m)": 7083131.272910544,
        "Time(s)": 192
    },
    {
        "Altitude(m)": 706989.1895452793,
        "Argument of Periapsis(deg)": 0.011569965205363285,
        "Eccentricity": 0.0,
        "Inclination(deg)": 45.0,
        "Latitude(deg)": 43.74057244261528,
        "Longitude(deg)": 151.3580297600595,
        "Mean Anomaly(deg)": 77.16982006823052,
        "RAAN(deg)": 179.9890782910451,
        "Satellite Name": "Constellation 1 796",
        "Satellite Number": 796,
        "Semi-Major Axis(m)": 7083131.272910544,
        "Time(s)": 193
    },
    {
        "Altitude(m)": 706992.1463015894,
        "Argument of Periapsis(deg)": 0.01162991321160869,
        "Eccentricity": 0.0,
        "Inclination(deg)": 45.0,
        "Latitude(deg)": 43.753733920938465,
        "Longitude(deg)": 151.43578997631772,
        "Mean Anomaly(deg)": 77.23052120848043,
        "RAAN(deg)": 179.98902170187952,
        "Satellite Name": "Constellation 1 796",
        "Satellite Number": 796,
        "Semi-Major Axis(m)": 7083131.272910544,
        "Time(s)": 194
    },
    {
        "Altitude(m)": 706995.0902740582,
        "Argument of Periapsis(deg)": 0.011689861217854095,
        "Eccentricity": 0.0,
        "Inclination(deg)": 45.0,
        "Latitude(deg)": 43.766836725716715,
        "Longitude(deg)": 151.51358597960746,
        "Mean Anomaly(deg)": 77.29122234873032,
        "RAAN(deg)": 179.98896511271394,
        "Satellite Name": "Constellation 1 796",
        "Satellite Number": 796,
        "Semi-Major Axis(m)": 7083131.272910544,
        "Time(s)": 195
    },
    {
        "Altitude(m)": 706998.021445371,
        "Argument of Periapsis(deg)": 0.0117498092240995,
        "Eccentricity": 0.0,
        "Inclination(deg)": 45.0,
        "Latitude(deg)": 43.77988080498491,
        "Longitude(deg)": 151.5914176418852,
        "Mean Anomaly(deg)": 77.35192348898018,
        "RAAN(deg)": 179.98890852354836,
        "Satellite Name": "Constellation 1 796",
        "Satellite Number": 796,
        "Semi-Major Axis(m)": 7083131.272910544,
        "Time(s)": 196
    },
    {
        "Altitude(m)": 707000.9397982733,
        "Argument of Periapsis(deg)": 0.011809757230344905,
        "Eccentricity": 0.0,
        "Inclination(deg)": 45.0,
        "Latitude(deg)": 43.792866106953824,
        "Longitude(deg)": 151.66928483457198,
        "Mean Anomaly(deg)": 77.41262462923012,
        "RAAN(deg)": 179.9888519343828,
        "Satellite Name": "Constellation 1 796",
        "Satellite Number": 796,
        "Semi-Major Axis(m)": 7083131.272910544,
        "Time(s)": 197
    },
    {
        "Altitude(m)": 707003.8453156042,
        "Argument of Periapsis(deg)": 0.011869705236590313,
        "Eccentricity": 0.0,
        "Inclination(deg)": 45.0,
        "Latitude(deg)": 43.80579258001075,
        "Longitude(deg)": 151.74718742855393,
        "Mean Anomaly(deg)": 77.47332576948,
        "RAAN(deg)": 179.98879534521726,
        "Satellite Name": "Constellation 1 796",
        "Satellite Number": 796,
        "Semi-Major Axis(m)": 7083131.272910544,
        "Time(s)": 198
    },
    {
        "Altitude(m)": 707006.7379802624,
        "Argument of Periapsis(deg)": 0.011929653242835719,
        "Eccentricity": 0.0,
        "Inclination(deg)": 45.0,
        "Latitude(deg)": 43.81866017272071,
        "Longitude(deg)": 151.82512529418372,
        "Mean Anomaly(deg)": 77.53402690972992,
        "RAAN(deg)": 179.98873875605165,
        "Satellite Name": "Constellation 1 796",
        "Satellite Number": 796,
        "Semi-Major Axis(m)": 7083131.272910544,
        "Time(s)": 199
    }
]